ONEWEB-0628             
1 55169U 23004AF  25334.88246881 -.00000375  00000+0 -10789-2 0  9990
2 55169  87.8955  30.0443 0001618 124.0397 236.0885 13.12441239142027
ONEWEB-0629             
1 55170U 23004AG  25334.92008449  .00000007  00000+0 -15587-4 0  9997
2 55170  87.9119  45.3036 0001930 111.0492 249.0846 13.17647657141474
ONEWEB-0631             
1 55171U 23004AH  25334.83584090  .00000096  00000+0  21190-3 0  9992
2 55171  87.9197  14.8285 0001473  79.9873 280.1425 13.18685334143538
ONEWEB-0709             
1 55172U 23004AJ  25334.75644128  .00000109  00000+0  27120-3 0  9997
2 55172  87.8862  60.6021 0001803  73.9366 286.1960 13.11419691139867
ONEWEB-0710             
1 55173U 23004AK  25334.63069347 -.00000014  00000+0 -68772-4 0  9995
2 55173  87.9122  45.3556 0001588 104.5866 255.5442 13.17648442141432
ONEWEB-0711             
1 55174U 23004AL  25334.72760088 -.00000506  00000+0 -14630-2 0  9994
2 55174  87.8871  60.5804 0001193 129.1277 230.9957 13.11417499139827
ONEWEB-0713             
1 55175U 23004AM  25334.74625119 -.00000570  00000+0 -16452-2 0  9997
2 55175  87.8862  60.5798 0001357 116.7163 243.4104 13.11420777139813
ONEWEB-0715             
1 55176U 23004AN  25334.74117210 -.00000489  00000+0 -14155-2 0  9993
2 55176  87.8871  60.5812 0001357  78.1507 281.9773 13.11418030139856
